{
    "CCSDS_OMM_VERS": "3.0",
    "COMMENT": "GENERATED VIA SPACE-TRACK.ORG API",
    "CREATION_DATE": "2025-05-22T17:14:14",
    "ORIGINATOR": "18 SPCS",
    "OBJECT_NAME": "COSMOS 2522 (GLONASS)",
    "OBJECT_ID": "2017-055A",
    "CENTER_NAME": "EARTH",
    "REF_FRAME": "TEME",
    "TIME_SYSTEM": "UTC",
    "MEAN_ELEMENT_THEORY": "SGP4",
    "EPOCH": "2025-05-22T05:31:34.097664",
    "MEAN_MOTION": "2.13101789",
    "ECCENTRICITY": "0.00097340",
    "INCLINATION": "64.0758",
    "RA_OF_ASC_NODE": "205.1948",
    "ARG_OF_PERICENTER": "238.7809",
    "MEAN_ANOMALY": "121.1969",
    "EPHEMERIS_TYPE": "0",
    "CLASSIFICATION_TYPE": "U",
    "NORAD_CAT_ID": "42939",
    "ELEMENT_SET_NO": "999",
    "REV_AT_EPOCH": "5964",
    "BSTAR": "0.00000000000000",
    "MEAN_MOTION_DOT": "0.00000054",
    "MEAN_MOTION_DDOT": "0.0000000000000",
    "SEMIMAJOR_AXIS": "25508.041",
    "PERIOD": "675.733",
    "APOAPSIS": "19154.736",
    "PERIAPSIS": "19105.077",
    "OBJECT_TYPE": "PAYLOAD",
    "RCS_SIZE": "LARGE",
    "COUNTRY_CODE": "CIS",
    "LAUNCH_DATE": "2017-09-22",
    "SITE": "PKMTR",
    "DECAY_DATE": null,
    "FILE": "4736220",
    "GP_ID": "288144868",
    "TLE_LINE0": "0 COSMOS 2522 (GLONASS)",
    "TLE_LINE1": "1 42939U 17055A   25142.23025576  .00000054  00000-0  00000-0 0  9998",
    "TLE_LINE2": "2 42939  64.0758 205.1948 0009734 238.7809 121.1969  2.13101789 59643"
}